IDEFIX & ARIANE 42P R/B 
1 27422U 02021B   26052.27435860  .00000266  00000+0  11768-3 0  9991
2 27422  98.5855 351.0785 0010776 233.3022 126.7171 14.31013455241676
AQUA                    
1 27424U 02022A   26052.26667815  .00000944  00000+0  19838-3 0  9999
2 27424  98.4146  19.3365 0001050  47.4297  56.8693 14.61932710266330
CZ-4B R/B               
1 27432U 02024C   26052.16876559  .00000022  00000+0  33851-4 0  9995
2 27432  98.8879 105.6558 0051056  70.5237 357.8364 14.14544541226908
MIDORI II (ADEOS-II)    
1 27597U 02056A   26051.86247034  .00000252  00000+0  11689-3 0  9997
2 27597  98.7740  10.2272 0002076  66.2064 293.9335 14.29271485207893
H-2A R/B                
1 27601U 02056E   26051.95282568  .00000249  00000+0  10213-3 0  9992
2 27601  98.3173  12.9589 0069468 210.6907 181.7080 14.33748323211716
CZ-4B R/B               
1 28059U 03049C   26051.94793001  .00000390  00000+0  10114-3 0  9998
2 28059  98.6863  46.1983 0047034 283.2464  76.3488 14.55001409184169
CZ-2C R/B               
1 28222U 04012C   26052.16019572  .00049646  00000+0  55501-3 0  9996
2 28222  97.7266 115.9102 0014595  15.0376 345.1312 15.62474477201694
SL-16 R/B               
1 28353U 04021B   26051.98100639  .00000245  00000+0  15232-3 0  9994
2 28353  70.9989 267.5591 0003287  48.5065 311.6339 14.14597417120471
CZ-4B R/B               
1 28415U 04035C   26052.02344859  .00007563  00000+0  26907-3 0  9999
2 28415  97.3522  86.4677 0033112  30.8170 329.5005 15.28731307177362
CZ-2C R/B               
1 28480U 04046B   26052.21794238  .00000116  00000+0  58629-4 0  9998
2 28480  98.1991 328.2257 0138866 203.1589 156.3296 14.26986029106152
ARIANE 5 R/B            
1 28499U 04049H   26051.99251507  .00000737  00000+0  87651-4 0  9998
2 28499  98.2598 219.8277 0085051  45.8361 314.9803 14.85231143143319
CZ-2D R/B               
1 28738U 05024B   26052.02437009  .00037350  00000+0  48748-3 0  9990
2 28738  97.3611  66.5795 0007561  86.6025 273.6096 15.58566742137183
